NORAD_CAT_ID,OBJECT_NAME,OBJECT_TYPE,EPOCH,MEAN_MOTION,ECCENTRICITY,INCLINATION,RA_OF_ASC_NODE,ARG_OF_PERICENTER,MEAN_ANOMALY,BSTAR,MEAN_MOTION_DOT,MEAN_MOTION_DDOT,TLE_LINE0,TLE_LINE1,TLE_LINE2,SEMIMAJOR_AXIS,PERIOD,APOGEE,PERIGEE,DECAYED
52490.0,STARLINK-3914,PAYLOAD,2023-06-23 06:34:17,15.08837446,9.66e-05,53.2155,175.2668,91.8384,268.2719,-5.9865e-05,-1.24e-05,0.0,0 STARLINK-3914,1 52490U 22049AR  23174.27381425 -.00001240  00000-0 -59865-4 0  9992,2 52490  53.2155 175.2668 0000966  91.8384 268.2719 15.08837446 63035,6917.888,95.438,540.421,539.085,0.0
52490.0,STARLINK-3914,PAYLOAD,2023-06-24 11:11:13,15.08837998,9.65e-05,53.2156,169.9152,83.9316,276.1786,8.4247e-05,1.053e-05,0.0,0 STARLINK-3914,1 52490U 22049AR  23175.46613272  .00001053  00000-0  84247-4 0  9994,2 52490  53.2156 169.9152 0000965  83.9316 276.1786 15.08837998 63214,6917.887,95.438,540.419,539.084,0.0
52490.0,STARLINK-3914,PAYLOAD,2023-06-25 15:48:10,15.08837259,9.92e-05,53.2157,164.5626,81.1899,278.9205,6.3742e-05,7.27e-06,0.0,0 STARLINK-3914,1 52490U 22049AR  23176.65845613  .00000727  00000-0  63742-4 0  9996,2 52490  53.2157 164.5626 0000992  81.1899 278.9205 15.08837259 63393,6917.889,95.438,540.44,539.068,0.0
52490.0,STARLINK-3914,PAYLOAD,2023-06-27 02:46:40,15.08832886,0.0001,53.2157,158.0217,85.0466,275.064,-3.8568e-05,-9.01e-06,0.0,0 STARLINK-3914,1 52490U 22049AR  23178.11574482 -.00000901  00000-0 -38568-4 0  9996,2 52490  53.2157 158.0217 0001000  85.0466 275.0640 15.08832886 63618,6917.902,95.438,540.459,539.075,0.0
52490.0,STARLINK-3914,PAYLOAD,2023-06-27 09:08:12,15.08838665,0.0001064,53.216,156.8315,82.0475,278.0638,5.7194e-06,-1.97e-06,0.0,0 STARLINK-3914,1 52490U 22049AR  23178.38070042 -.00000197  00000-0  57194-5 0  9991,2 52490  53.2160 156.8315 0001064  82.0475 278.0638 15.08838665 63659,6917.884,95.438,540.486,539.013,0.0
52490.0,STARLINK-3914,PAYLOAD,2023-06-28 15:20:32,15.0884142,0.0001149,53.2168,151.1818,91.2714,268.8409,-1.0038e-05,-4.48e-06,0.0,0 STARLINK-3914,1 52490U 22049AR  23179.63926086 -.00000448  00000-0 -10038-4 0  9993,2 52490  53.2168 151.1818 0001149  91.2714 268.8409 15.08841420 63842,6917.876,95.437,540.536,538.946,0.0
52490.0,STARLINK-3914,PAYLOAD,2023-06-29 04:03:38,15.08830426,0.0001087,53.2164,148.8019,91.8143,268.2974,-8.7944e-06,-4.28e-06,0.0,0 STARLINK-3914,1 52490U 22049AR  23180.16919046 -.00000428  00000-0 -87944-5 0  9990,2 52490  53.2164 148.8019 0001087  91.8143 268.2974 15.08830426 63921,6917.91,95.438,540.527,539.023,0.0
52490.0,STARLINK-3914,PAYLOAD,2023-07-02 02:00:35,15.08841956,0.0001299,53.2165,135.7173,95.8872,264.2268,4.571e-05,4.4e-06,0.0,0 STARLINK-3914,1 52490U 22049AR  23183.08374551  .00000440  00000-0  45710-4 0  9996,2 52490  53.2165 135.7173 0001299  95.8872 264.2268 15.08841956 64367,6917.874,95.437,540.638,538.841,0.0
52490.0,STARLINK-3914,PAYLOAD,2023-07-03 03:26:45,15.08844089,0.0001255,53.2165,130.9608,90.1851,269.9285,1.7812e-06,-2.6e-06,0.0,0 STARLINK-3914,1 52490U 22049AR  23184.14358407 -.00000260  00000-0  17812-5 0  9990,2 52490  53.2165 130.9608 0001255  90.1851 269.9285 15.08844089 64523,6917.868,95.437,540.601,538.865,0.0
52490.0,STARLINK-3914,PAYLOAD,2023-07-04 23:57:33,15.08841406,0.0001177,53.2164,122.6356,95.1887,264.9239,4.4132e-05,4.15e-06,0.0,0 STARLINK-3914,1 52490U 22049AR  23185.99830644  .00000415  00000-0  44132-4 0  9997,2 52490  53.2164 122.6356 0001177  95.1887 264.9239 15.08841406 64802,6917.876,95.437,540.555,538.927,0.0
52490.0,STARLINK-3914,PAYLOAD,2023-07-05 22:12:58,15.08829665,0.0001303,53.217,118.4708,84.4131,275.701,1.8155e-05,1e-08,0.0,0 STARLINK-3914,1 52490U 22049AR  23186.92567684  .00000001  00000-0  18155-4 0  9999,2 52490  53.2170 118.4708 0001303  84.4131 275.7010 15.08829665 64942,6917.912,95.438,540.678,538.876,0.0
52490.0,STARLINK-3914,PAYLOAD,2023-07-06 15:42:12,15.08839949,0.0001239,53.217,115.2004,86.6373,273.4761,-3.0346e-06,-3.36e-06,0.0,0 STARLINK-3914,1 52490U 22049AR  23187.65431423 -.00000336  00000-0 -30346-5 0  9991,2 52490  53.2170 115.2004 0001239  86.6373 273.4761 15.08839949 65053,6917.881,95.438,540.603,538.888,0.0
52490.0,STARLINK-3914,PAYLOAD,2023-07-07 04:25:17,15.08849477,0.0001293,53.2172,112.8208,84.1929,275.9211,6.5277e-05,7.51e-06,0.0,0 STARLINK-3914,1 52490U 22049AR  23188.18422548  .00000751  00000-0  65277-4 0  9997,2 52490  53.2172 112.8208 0001293  84.1929 275.9211 15.08849477 65137,6917.851,95.437,540.611,538.822,0.0
52490.0,STARLINK-3914,PAYLOAD,2023-07-08 01:05:18,15.08840136,0.0001217,53.218,108.9529,97.8198,262.2932,9.4084e-05,1.21e-05,0.0,0 STARLINK-3914,1 52490U 22049AR  23189.04534875  .00001210  00000-0  94084-4 0  9999,2 52490  53.2180 108.9529 0001217  97.8198 262.2932 15.08840136 65269,6917.88,95.438,540.587,538.903,0.0
52490.0,STARLINK-3914,PAYLOAD,2023-07-08 04:16:04,15.0884717,0.0001321,53.2175,108.3584,99.0679,261.0462,9.5168e-05,1.227e-05,0.0,0 STARLINK-3914,1 52490U 22049AR  23189.17782408  .00001227  00000-0  95168-4 0  9992,2 52490  53.2175 108.3584 0001321  99.0679 261.0462 15.08847170 65284,6917.858,95.437,540.637,538.81,0.0
52490.0,STARLINK-3914,PAYLOAD,2023-07-08 18:34:33,15.08836156,0.000117,53.2173,105.6834,100.7514,259.361,-2.5536e-05,-6.94e-06,0.0,0 STARLINK-3914,1 52490U 22049AR  23189.77399509 -.00000694  00000-0 -25536-4 0  9995,2 52490  53.2173 105.6834 0001170 100.7514 259.3610 15.08836156 65377,6917.892,95.438,540.567,538.948,0.0
52490.0,STARLINK-3914,PAYLOAD,2023-07-09 04:06:51,15.08843421,0.0001119,53.217,103.9003,102.1669,257.9449,-2.0805e-05,-6.19e-06,0.0,0 STARLINK-3914,1 52490U 22049AR  23190.17143009 -.00000619  00000-0 -20805-4 0  9994,2 52490  53.2170 103.9003 0001119 102.1669 257.9449 15.08843421 65437,6917.87,95.437,540.509,538.961,0.0
52490.0,STARLINK-3914,PAYLOAD,2023-07-11 00:37:39,15.08835708,0.0001018,53.2168,95.5754,92.8761,267.2348,6.2509e-05,7.07e-06,0.0,0 STARLINK-3914,1 52490U 22049AR  23192.02615460  .00000707  00000-0  62509-4 0  9998,2 52490  53.2168  95.5754 0001018  92.8761 267.2348 15.08835708 65711,6917.894,95.438,540.463,539.054,0.0
52490.0,STARLINK-3914,PAYLOAD,2023-07-13 16:13:05,15.08835216,0.0001235,53.2184,83.6821,91.1171,268.9962,8.3762e-06,-1.55e-06,0.0,0 STARLINK-3914,1 52490U 22049AR  23194.67576250 -.00000155  00000-0  83762-5 0  9997,2 52490  53.2184  83.6821 0001235  91.1171 268.9962 15.08835216 66119,6917.895,95.438,540.614,538.906,0.0
52490.0,STARLINK-3914,PAYLOAD,2023-07-15 01:36:10,15.08853229,0.0001127,53.2177,77.4355,93.2957,266.8164,0.00012208,1.656e-05,0.0,0 STARLINK-3914,1 52490U 22049AR  23196.06678798  .00001656  00000-0  12208-3 0  9993,2 52490  53.2177  77.4355 0001127  93.2957 266.8164 15.08853229 66327,6917.84,95.437,540.485,538.925,0.0
52490.0,STARLINK-3914,PAYLOAD,2023-07-15 15:54:39,15.08834011,0.0001162,53.2171,74.7592,88.3597,271.7528,6.7446e-05,7.86e-06,0.0,0 STARLINK-3914,1 52490U 22049AR  23196.66296205  .00000786  00000-0  67446-4 0  9996,2 52490  53.2171  74.7592 0001162  88.3597 271.7528 15.08834011 66415,6917.899,95.438,540.568,538.96,0.0
52490.0,STARLINK-3914,PAYLOAD,2023-07-16 17:20:50,15.08843248,0.0001164,53.218,70.001,88.9695,271.143,-7.8647e-05,-1.539e-05,0.0,0 STARLINK-3914,1 52490U 22049AR  23197.72280376 -.00001539  00000-0 -78647-4 0  9990,2 52490  53.2180  70.0010 0001164  88.9695 271.1430 15.08843248 66571,6917.87,95.437,540.541,538.93,0.0
52490.0,STARLINK-3914,PAYLOAD,2023-07-16 22:06:59,15.08850655,0.0001094,53.2179,69.1085,87.281,272.8308,-4.7288e-05,-1.041e-05,0.0,0 STARLINK-3914,1 52490U 22049AR  23197.92151740 -.00001041  00000-0 -47288-4 0  9999,2 52490  53.2179  69.1085 0001094  87.2810 272.8308 15.08850655 66609,6917.848,95.437,540.47,538.956,0.0
52490.0,STARLINK-3914,PAYLOAD,2023-07-17 23:33:08,15.08849651,0.0001081,53.2179,64.3505,82.2825,277.829,0.00014586,2.035e-05,0.0,0 STARLINK-3914,1 52490U 22049AR  23198.98135022  .00002035  00000-0  14586-3 0  9997,2 52490  53.2179  64.3505 0001081  82.2825 277.8290 15.08849651 66766,6917.851,95.437,540.464,538.968,0.0
52490.0,STARLINK-3914,PAYLOAD,2023-07-18 23:23:56,15.08839044,0.0001085,53.218,59.8907,95.8772,264.2344,7.1838e-06,-1.73e-06,0.0,0 STARLINK-3914,1 52490U 22049AR  23199.97496295 -.00000173  00000-0  71838-5 0  9996,2 52490  53.2180  59.8907 0001085  95.8772 264.2344 15.08839044 66910,6917.883,95.438,540.499,538.998,0.0
52490.0,STARLINK-3914,PAYLOAD,2023-07-19 18:28:35,15.08833237,9.84e-05,53.2181,56.3248,89.8337,270.2768,-0.00011912,-2.183e-05,0.0,0 STARLINK-3914,1 52490U 22049AR  23200.76985320 -.00002183  00000-0 -11912-3 0  9997,2 52490  53.2181  56.3248 0000984  89.8337 270.2768 15.08833237 67037,6917.901,95.438,540.447,539.085,0.0
52490.0,STARLINK-3914,PAYLOAD,2023-07-20 16:43:58,15.08837597,0.00011,53.2184,52.1617,113.3314,246.7794,0.00010462,1.378e-05,0.0,0 STARLINK-3914,1 52490U 22049AR  23201.69720871  .00001378  00000-0  10462-3 0  9990,2 52490  53.2184  52.1617 0001100 113.3314 246.7794 15.08837597 67178,6917.888,95.438,540.514,538.992,0.0
52490.0,STARLINK-3914,PAYLOAD,2023-07-20 23:05:30,15.08845854,0.0001098,53.2186,50.9723,108.8727,251.2384,0.00015613,2.198e-05,0.0,0 STARLINK-3914,1 52490U 22049AR  23201.96216318  .00002198  00000-0  15613-3 0  9990,2 52490  53.2186  50.9723 0001098 108.8727 251.2384 15.08845854 67213,6917.862,95.437,540.487,538.968,0.0
52490.0,STARLINK-3914,PAYLOAD,2023-07-21 16:34:46,15.08838976,8.92e-05,53.2181,47.7015,79.7748,280.3345,0.00013366,1.84e-05,0.0,0 STARLINK-3914,1 52490U 22049AR  23202.69081075  .00001840  00000-0  13366-3 0  9997,2 52490  53.2181  47.7015 0000892  79.7748 280.3345 15.08838976 67325,6917.884,95.438,540.366,539.131,0.0
52490.0,STARLINK-3914,PAYLOAD,2023-07-23 22:37:52,15.0884214,0.0001158,53.2182,37.5884,106.5075,253.6044,7.9784e-06,-1.61e-06,0.0,0 STARLINK-3914,1 52490U 22049AR  23204.94296811 -.00000161  00000-0  79784-5 0  9997,2 52490  53.2182  37.5884 0001158 106.5075 253.6044 15.08842140 67502,6917.874,95.437,540.54,538.938,0.0
